FENGYUN 1C DEB          
1 31522U 99025BXM 17344.64828692  .00000265  00000-0  20767-3 0  9990
2 31522  99.0299  46.1194 0046598  51.5969 101.1774 14.00161471540448
